{
  "type": "FeatureCollection",
  "features": [
    {
      "type": "Feature",
      "properties": {
        "norad_id": 36686,
        "name": "FENGYUN 1C DEB",
        "group": "fengyun-1c-debris",
        "lat": -79.23315159129325,
        "lon": -109.82937107742028,
        "alt_km": 649.254338548013,
        "timestamp": "2025-12-26T16:33:55.858898+00:00",
        "meta_object_name": "FENGYUN 1C DEB",
        "meta_object_id": "1999-025DZG",
        "meta_epoch": "2025-12-24T19:25:41.479968",
        "meta_mean_motion": 14.77343626,
        "meta_eccentricity": 0.01046369,
        "meta_inclination": 99.0009,
        "meta_ra_of_asc_node": 191.6088,
        "meta_arg_of_pericenter": 15.7807,
        "meta_mean_anomaly": 344.6619,
        "meta_ephemeris_type": 0,
        "meta_classification_type": "U",
        "meta_norad_cat_id": 36686,
        "meta_element_set_no": 999,
        "meta_rev_at_epoch": 66030,
        "meta_bstar": 0.00081992673,
        "meta_mean_motion_dot": 6.314e-05,
        "meta_mean_motion_ddot": 0,
        "tle_line1": "1 36686U 99025DZG 25358.80950787  .00006314  00000+0  81993-3 0  9997",
        "tle_line2": "2 36686  99.0009 191.6088 0104636  15.7807 344.6619 14.77343626660300"
      },
      "geometry": {
        "type": "Point",
        "coordinates": [
          -109.82937107742028,
          -79.23315159129325
        ]
      }
    },
    {
      "type": "Feature",
      "properties": {
        "norad_id": 36687,
        "name": "FENGYUN 1C DEB",
        "group": "fengyun-1c-debris",
        "lat": 26.3340270726828,
        "lon": 82.21362590843489,
        "alt_km": 938.9102143582741,
        "timestamp": "2025-12-26T16:33:55.858907+00:00",
        "meta_object_name": "FENGYUN 1C DEB",
        "meta_object_id": "1999-025DZH",
        "meta_epoch": "2025-12-17T23:51:08.993376",
        "meta_mean_motion": 14.04533718,
        "meta_eccentricity": 0.00903258,
        "meta_inclination": 98.7154,
        "meta_ra_of_asc_node": 78.2194,
        "meta_arg_of_pericenter": 250.4808,
        "meta_mean_anomaly": 108.6587,
        "meta_ephemeris_type": 0,
        "meta_classification_type": "U",
        "meta_norad_cat_id": 36687,
        "meta_element_set_no": 999,
        "meta_rev_at_epoch": 62796,
        "meta_bstar": 6.2205267e-05,
        "meta_mean_motion_dot": 6e-07,
        "meta_mean_motion_ddot": 0,
        "tle_line1": "1 36687U 99025DZH 25351.99385409  .00000060  00000+0  62205-4 0  9992",
        "tle_line2": "2 36687  98.7154  78.2194 0090325 250.4808 108.6587 14.04533718627964"
      },
      "geometry": {
        "type": "Point",
        "coordinates": [
          82.21362590843489,
          26.3340270726828
        ]
      }
    },
    {
      "type": "Feature",
      "properties": {
        "norad_id": 36689,
        "name": "FENGYUN 1C DEB",
        "group": "fengyun-1c-debris",
        "lat": 69.63018035445168,
        "lon": 96.68175475038979,
        "alt_km": 1174.8193183502026,
        "timestamp": "2025-12-26T16:33:55.858916+00:00",
        "meta_object_name": "FENGYUN 1C DEB",
        "meta_object_id": "1999-025DZK",
        "meta_epoch": "2025-11-28T10:04:14.213280",
        "meta_mean_motion": 13.74189275,
        "meta_eccentricity": 0.03131537,
        "meta_inclination": 98.4796,
        "meta_ra_of_asc_node": 227.8431,
        "meta_arg_of_pericenter": 334.7216,
        "meta_mean_anomaly": 23.8887,
        "meta_ephemeris_type": 0,
        "meta_classification_type": "U",
        "meta_norad_cat_id": 36689,
        "meta_element_set_no": 999,
        "meta_rev_at_epoch": 58016,
        "meta_bstar": 0.0027905602,
        "meta_mean_motion_dot": 3.71e-05,
        "meta_mean_motion_ddot": 0,
        "tle_line1": "1 36689U 99025DZK 25332.41960895  .00003710  00000+0  27906-2 0  9990",
        "tle_line2": "2 36689  98.4796 227.8431 0313153 334.7216  23.8887 13.74189275580169"
      },
      "geometry": {
        "type": "Point",
        "coordinates": [
          96.68175475038979,
          69.63018035445168
        ]
      }
    },
    {
      "type": "Feature",
      "properties": {
        "norad_id": 36691,
        "name": "FENGYUN 1C DEB",
        "group": "fengyun-1c-debris",
        "lat": 33.45411953228468,
        "lon": -174.0385908252028,
        "alt_km": 805.8077986396474,
        "timestamp": "2025-12-26T16:33:55.858925+00:00",
        "meta_object_name": "FENGYUN 1C DEB",
        "meta_object_id": "1999-025DZM",
        "meta_epoch": "2025-12-08T17:50:07.073952",
        "meta_mean_motion": 14.07105067,
        "meta_eccentricity": 0.01290803,
        "meta_inclination": 98.6374,
        "meta_ra_of_asc_node": 343.0423,
        "meta_arg_of_pericenter": 246.8073,
        "meta_mean_anomaly": 111.9457,
        "meta_ephemeris_type": 0,
        "meta_classification_type": "U",
        "meta_norad_cat_id": 36691,
        "meta_element_set_no": 999,
        "meta_rev_at_epoch": 59553,
        "meta_bstar": 0.0032098608,
        "meta_mean_motion_dot": 5.753e-05,
        "meta_mean_motion_ddot": 0,
        "tle_line1": "1 36691U 99025DZM 25342.74313743  .00005753  00000+0  32099-2 0  9992",
        "tle_line2": "2 36691  98.6374 343.0423 0129080 246.8073 111.9457 14.07105067595539"
      },
      "geometry": {
        "type": "Point",
        "coordinates": [
          -174.0385908252028,
          33.45411953228468
        ]
      }
    },
    {
      "type": "Feature",
      "properties": {
        "norad_id": 36692,
        "name": "FENGYUN 1C DEB",
        "group": "fengyun-1c-debris",
        "lat": -0.9121910689710242,
        "lon": 87.71108079149036,
        "alt_km": 995.4061128411986,
        "timestamp": "2025-12-26T16:33:55.858933+00:00",
        "meta_object_name": "FENGYUN 1C DEB",
        "meta_object_id": "1999-025DZN",
        "meta_epoch": "2025-12-24T13:43:23.157120",
        "meta_mean_motion": 13.93485945,
        "meta_eccentricity": 0.01144657,
        "meta_inclination": 99.9949,
        "meta_ra_of_asc_node": 265.5847,
        "meta_arg_of_pericenter": 342.2339,
        "meta_mean_anomaly": 17.4832,
        "meta_ephemeris_type": 0,
        "meta_classification_type": "U",
        "meta_norad_cat_id": 36692,
        "meta_element_set_no": 999,
        "meta_rev_at_epoch": 59970,
        "meta_bstar": 0.0004851142,
        "meta_mean_motion_dot": 6.19e-06,
        "meta_mean_motion_ddot": 0,
        "tle_line1": "1 36692U 99025DZN 25358.57179580  .00000619  00000+0  48511-3 0  9993",
        "tle_line2": "2 36692  99.9949 265.5847 0114465 342.2339  17.4832 13.93485945599707"
      },
      "geometry": {
        "type": "Point",
        "coordinates": [
          87.71108079149036,
          -0.9121910689710242
        ]
      }
    },
    {
      "type": "Feature",
      "properties": {
        "norad_id": 36695,
        "name": "FENGYUN 1C DEB",
        "group": "fengyun-1c-debris",
        "lat": 57.21691253535312,
        "lon": -31.406117951601676,
        "alt_km": 580.1256920077576,
        "timestamp": "2025-12-26T16:33:55.858942+00:00",
        "meta_object_name": "FENGYUN 1C DEB",
        "meta_object_id": "1999-025DZR",
        "meta_epoch": "2025-12-24T04:25:32.338848",
        "meta_mean_motion": 14.43766629,
        "meta_eccentricity": 0.02577513,
        "meta_inclination": 98.2225,
        "meta_ra_of_asc_node": 339.1444,
        "meta_arg_of_pericenter": 95.6825,
        "meta_mean_anomaly": 267.3815,
        "meta_ephemeris_type": 0,
        "meta_classification_type": "U",
        "meta_norad_cat_id": 36695,
        "meta_element_set_no": 999,
        "meta_rev_at_epoch": 89733,
        "meta_bstar": 0.00019034528,
        "meta_mean_motion_dot": 9.19e-06,
        "meta_mean_motion_ddot": 0,
        "tle_line1": "1 36695U 99025DZR 25358.18440207  .00000919  00000+0  19035-3 0  9992",
        "tle_line2": "2 36695  98.2225 339.1444 0257751  95.6825 267.3815 14.43766629897339"
      },
      "geometry": {
        "type": "Point",
        "coordinates": [
          -31.406117951601676,
          57.21691253535312
        ]
      }
    },
    {
      "type": "Feature",
      "properties": {
        "norad_id": 36696,
        "name": "FENGYUN 1C DEB",
        "group": "fengyun-1c-debris",
        "lat": 79.3048469139248,
        "lon": -46.60790373821278,
        "alt_km": 768.2315245463797,
        "timestamp": "2025-12-26T16:33:55.858951+00:00",
        "meta_object_name": "FENGYUN 1C DEB",
        "meta_object_id": "1999-025DZS",
        "meta_epoch": "2025-12-20T18:21:37.280448",
        "meta_mean_motion": 14.39290248,
        "meta_eccentricity": 0.0022773,
        "meta_inclination": 98.991,
        "meta_ra_of_asc_node": 4.1437,
        "meta_arg_of_pericenter": 304.9139,
        "meta_mean_anomaly": 54.9908,
        "meta_ephemeris_type": 0,
        "meta_classification_type": "U",
        "meta_norad_cat_id": 36696,
        "meta_element_set_no": 999,
        "meta_rev_at_epoch": 64511,
        "meta_bstar": 0.0012348867,
        "meta_mean_motion_dot": 3.799e-05,
        "meta_mean_motion_ddot": 0,
        "tle_line1": "1 36696U 99025DZS 25354.76501482  .00003799  00000+0  12349-2 0  9995",
        "tle_line2": "2 36696  98.9910   4.1437 0022773 304.9139  54.9908 14.39290248645111"
      },
      "geometry": {
        "type": "Point",
        "coordinates": [
          -46.60790373821278,
          79.3048469139248
        ]
      }
    }
  ]
}